{"type": "FeatureCollection", "features": [ {"type": "Feature", "properties": {"norad_id": 66588, "name": "STARLINK-36076", "group": "last-30-days", "lat": -33.11184990554918, "lon": 47.62426320794599, "alt_km": 445.7167829103537, "timestamp": "2025-12-14T09:36:21.778957+00:00", "meta": {"OBJECT_NAME": "STARLINK-36076", "OBJECT_ID": "2025-270A", "EPOCH": "2025-12-13T14:00:03.000384", "MEAN_MOTION": 15.40634825, "ECCENTRICITY": 0.00016372, "INCLINATION": 42.9994, "RA_OF_ASC_NODE": 187.9141, "ARG_OF_PERICENTER": 233.1025, "MEAN_ANOMALY": 143.8883, "EPHEMERIS_TYPE": 0, "CLASSIFICATION_TYPE": "U", "NORAD_CAT_ID": 66588, "ELEMENT_SET_NO": 999, "REV_AT_EPOCH": 453, "BSTAR": 0.0015522377, "MEAN_MOTION_DOT": 0.00064951, "MEAN_MOTION_DDOT": 0}, "tle": {"line1": "1 66588U 25270A   25347.58336806  .00064951  00000+0  15522-2 0  9990", "line2": "2 66588  42.9994 187.9141 0001637 233.1025 143.8883 15.40634825  4531"}}, "geometry": {"type": "Point", "coordinates": [47.62426320794599, -33.11184990554918]}}, {"type": "Feature", "properties": {"norad_id": 66589, "name": "STARLINK-35447", "group": "last-30-days", "lat": -31.175486146116057, "lon": 142.52881872348536, "alt_km": 418.61402854321295, "timestamp": "2025-12-14T09:36:21.778968+00:00", "meta": {"OBJECT_NAME": "STARLINK-35447", "OBJECT_ID": "2025-270B", "EPOCH": "2025-12-13T14:00:03.000384", "MEAN_MOTION": 15.50689819, "ECCENTRICITY": 0.00015685, "INCLINATION": 42.9997, "RA_OF_ASC_NODE": 187.7948, "ARG_OF_PERICENTER": 266.7776, "MEAN_ANOMALY": 159.1658, "EPHEMERIS_TYPE": 0, "CLASSIFICATION_TYPE": "U", "NORAD_CAT_ID": 66589, "ELEMENT_SET_NO": 999, "REV_AT_EPOCH": 464, "BSTAR": -0.0071769603, "MEAN_MOTION_DOT": -0.0040207, "MEAN_MOTION_DDOT": 0}, "tle": {"line1": "1 66589U 25270B   25347.58336806 -.00402070  00000+0 -71770-2 0  9998", "line2": "2 66589  42.9997 187.7948 0001568 266.7776 159.1658 15.50689819  4642"}}, "geometry": {"type": "Point", "coordinates": [142.52881872348536, -31.175486146116057]}}, {"type": "Feature", "properties": {"norad_id": 66590, "name": "STARLINK-35429", "group": "last-30-days", "lat": -31.794461053794688, "lon": 141.31948158927247, "alt_km": 416.83634039318986, "timestamp": "2025-12-14T09:36:21.778978+00:00", "meta": {"OBJECT_NAME": "STARLINK-35429", "OBJECT_ID": "2025-270C", "EPOCH": "2025-12-13T14:00:03.000384", "MEAN_MOTION": 15.50513928, "ECCENTRICITY": 0.00016636, "INCLINATION": 42.9996, "RA_OF_ASC_NODE": 187.7994, "ARG_OF_PERICENTER": 261.6452, "MEAN_ANOMALY": 162.4127, "EPHEMERIS_TYPE": 0, "CLASSIFICATION_TYPE": "U", "NORAD_CAT_ID": 66590, "ELEMENT_SET_NO": 999, "REV_AT_EPOCH": 464, "BSTAR": 0.0013342114, "MEAN_MOTION_DOT": 0.00078537, "MEAN_MOTION_DDOT": 0}, "tle": {"line1": "1 66590U 25270C   25347.58336806  .00078537  00000+0  13342-2 0  9996", "line2": "2 66590  42.9996 187.7994 0001663 261.6452 162.4127 15.50513928  4640"}}, "geometry": {"type": "Point", "coordinates": [141.31948158927247, -31.794461053794688]}}, {"type": "Feature", "properties": {"norad_id": 66591, "name": "STARLINK-36058", "group": "last-30-days", "lat": -29.78425040358039, "lon": 145.1167869173958, "alt_km": 416.18505092320265, "timestamp": "2025-12-14T09:36:21.778988+00:00", "meta": {"OBJECT_NAME": "STARLINK-36058", "OBJECT_ID": "2025-270D", "EPOCH": "2025-12-13T14:00:03.000384", "MEAN_MOTION": 15.50502401, "ECCENTRICITY": 0.00028378, "INCLINATION": 42.9995, "RA_OF_ASC_NODE": 187.7906, "ARG_OF_PERICENTER": 262.7376, "MEAN_ANOMALY": 165.1686, "EPHEMERIS_TYPE": 0, "CLASSIFICATION_TYPE": "U", "NORAD_CAT_ID": 66591, "ELEMENT_SET_NO": 999, "REV_AT_EPOCH": 453, "BSTAR": 0.0014594027, "MEAN_MOTION_DOT": 0.00085992, "MEAN_MOTION_DDOT": 0}, "tle": {"line1": "1 66591U 25270D   25347.58336806  .00085992  00000+0  14594-2 0  9990", "line2": "2 66591  42.9995 187.7906 0002837 262.7376 165.1686 15.50502401  4536"}}, "geometry": {"type": "Point", "coordinates": [145.1167869173958, -29.78425040358039]}}, {"type": "Feature", "properties": {"norad_id": 66592, "name": "STARLINK-36066", "group": "last-30-days", "lat": -41.656815707485194, "lon": 110.40184356092021, "alt_km": 442.9522864181554, "timestamp": "2025-12-14T09:36:21.778998+00:00", "meta": {"OBJECT_NAME": "STARLINK-36066", "OBJECT_ID": "2025-270E", "EPOCH": "2025-12-13T14:00:03.000384", "MEAN_MOTION": 15.45268842, "ECCENTRICITY": 0.00016949, "INCLINATION": 42.9999, "RA_OF_ASC_NODE": 187.8135, "ARG_OF_PERICENTER": 263.8867, "MEAN_ANOMALY": 154.5783, "EPHEMERIS_TYPE": 0, "CLASSIFICATION_TYPE": "U", "NORAD_CAT_ID": 66592, "ELEMENT_SET_NO": 999, "REV_AT_EPOCH": 443, "BSTAR": -0.047304505, "MEAN_MOTION_DOT": -0.02049855, "MEAN_MOTION_DDOT": 0}, "tle": {"line1": "1 66592U 25270E   25347.58336806 -.02049855  00000+0 -47305-1 0  9998", "line2": "2 66592  42.9999 187.8135 0001694 263.8867 154.5783 15.45268842  4434"}}, "geometry": {"type": "Point", "coordinates": [110.40184356092021, -41.656815707485194]}}, {"type": "Feature", "properties": {"norad_id": 66593, "name": "STARLINK-36031", "group": "last-30-days", "lat": -27.68040401773428, "lon": 148.74173561294944, "alt_km": 416.76441401722786, "timestamp": "2025-12-14T09:36:21.779008+00:00", "meta": {"OBJECT_NAME": "STARLINK-36031", "OBJECT_ID": "2025-270F", "EPOCH": "2025-12-13T14:00:03.000384", "MEAN_MOTION": 15.50508487, "ECCENTRICITY": 0.00015169, "INCLINATION": 42.9996, "RA_OF_ASC_NODE": 187.781, "ARG_OF_PERICENTER": 260.0993, "MEAN_ANOMALY": 171.6314, "EPHEMERIS_TYPE": 0, "CLASSIFICATION_TYPE": "U", "NORAD_CAT_ID": 66593, "ELEMENT_SET_NO": 999, "REV_AT_EPOCH": 453, "BSTAR": 0.0013846617, "MEAN_MOTION_DOT": 0.00081535, "MEAN_MOTION_DDOT": 0}, "tle": {"line1": "1 66593U 25270F   25347.58336806  .00081535  00000+0  13847-2 0  9991", "line2": "2 66593  42.9996 187.7810 0001516 260.0993 171.6314 15.50508487  4532"}}, "geometry": {"type": "Point", "coordinates": [148.74173561294944, -27.68040401773428]}}, {"type": "Feature", "properties": {"norad_id": 66594, "name": "STARLINK-36032", "group": "last-30-days", "lat": -26.590174196876866, "lon": 150.5056694089654, "alt_km": 416.6465698628954, "timestamp": "2025-12-14T09:36:21.779020+00:00", "meta": {"OBJECT_NAME": "STARLINK-36032", "OBJECT_ID": "2025-270G", "EPOCH": "2025-12-13T14:00:03.000384", "MEAN_MOTION": 15.50508124, "ECCENTRICITY": 0.00015434, "INCLINATION": 42.9997, "RA_OF_ASC_NODE": 187.7756, "ARG_OF_PERICENTER": 264.3644, "MEAN_ANOMALY": 169.2852, "EPHEMERIS_TYPE": 0, "CLASSIFICATION_TYPE": "U", "NORAD_CAT_ID": 66594, "ELEMENT_SET_NO": 999, "REV_AT_EPOCH": 427, "BSTAR": 0.0013807063, "MEAN_MOTION_DOT": 0.00081298, "MEAN_MOTION_DDOT": 0}, "tle": {"line1": "1 66594U 25270G   25347.58336806  .00081298  00000+0  13807-2 0  9994", "line2": "2 66594  42.9997 187.7756 0001543 264.3644 169.2852 15.50508124  4272"}}, "geometry": {"type": "Point", "coordinates": [150.5056694089654, -26.590174196876866]}}, {"type": "Feature", "properties": {"norad_id": 66595, "name": "STARLINK-35711", "group": "last-30-days", "lat": -25.472622560653882, "lon": 152.24528421087646, "alt_km": 416.6643896733749, "timestamp": "2025-12-14T09:36:21.779030+00:00", "meta": {"OBJECT_NAME": "STARLINK-35711", "OBJECT_ID": "2025-270H", "EPOCH": "2025-12-13T14:00:03.000384", "MEAN_MOTION": 15.5049292, "ECCENTRICITY": 0.00015021, "INCLINATION": 42.9998, "RA_OF_ASC_NODE": 187.7706, "ARG_OF_PERICENTER": 258.0351, "MEAN_ANOMALY": 177.5456, "EPHEMERIS_TYPE": 0, "CLASSIFICATION_TYPE": "U", "NORAD_CAT_ID": 66595, "ELEMENT_SET_NO": 999, "REV_AT_EPOCH": 464, "BSTAR": 0.0016623878, "MEAN_MOTION_DOT": 0.00098112, "MEAN_MOTION_DDOT": 0}, "tle": {"line1": "1 66595U 25270H   25347.58336806  .00098112  00000+0  16624-2 0  9998", "line2": "2 66595  42.9998 187.7706 0001502 258.0351 177.5456 15.50492920  4648"}}, "geometry": {"type": "Point", "coordinates": [152.24528421087646, -25.472622560653882]}}, {"type": "Feature", "properties": {"norad_id": 66596, "name": "STARLINK-35811", "group": "last-30-days", "lat": -41.854614229557875, "lon": 77.16299430546125, "alt_km": 445.93764577759976, "timestamp": "2025-12-14T09:36:21.779040+00:00", "meta": {"OBJECT_NAME": "STARLINK-35811", "OBJECT_ID": "2025-270J", "EPOCH": "2025-12-13T14:00:03.000384", "MEAN_MOTION": 15.40639364, "ECCENTRICITY": 0.00019387, "INCLINATION": 42.9993, "RA_OF_ASC_NODE": 187.8522, "ARG_OF_PERICENTER": 259.2609, "MEAN_ANOMALY": 142.6665, "EPHEMERIS_TYPE": 0, "CLASSIFICATION_TYPE": "U", "NORAD_CAT_ID": 66596, "ELEMENT_SET_NO": 999, "REV_AT_EPOCH": 464, "BSTAR": 0.0015316273, "MEAN_MOTION_DOT": 0.00064087, "MEAN_MOTION_DDOT": 0}, "tle": {"line1": "1 66596U 25270J   25347.58336806  .00064087  00000+0  15316-2 0  9990", "line2": "2 66596  42.9993 187.8522 0001938 259.2609 142.6665 15.40639364  4642"}}, "geometry": {"type": "Point", "coordinates": [77.16299430546125, -41.854614229557875]}}, {"type": "Feature", "properties": {"norad_id": 66597, "name": "STARLINK-35820", "group": "last-30-days", "lat": -34.0464269735393, "lon": 136.5524605295444, "alt_km": 437.090814679711, "timestamp": "2025-12-14T09:36:21.779050+00:00", "meta": {"OBJECT_NAME": "STARLINK-35820", "OBJECT_ID": "2025-270K", "EPOCH": "2025-12-13T14:00:03.000384", "MEAN_MOTION": 15.47225635, "ECCENTRICITY": 0.00020019, "INCLINATION": 42.9997, "RA_OF_ASC_NODE": 187.7718, "ARG_OF_PERICENTER": 266.9964, "MEAN_ANOMALY": 167.7892, "EPHEMERIS_TYPE": 0, "CLASSIFICATION_TYPE": "U", "NORAD_CAT_ID": 66597, "ELEMENT_SET_NO": 999, "REV_AT_EPOCH": 464, "BSTAR": -0.045335877, "MEAN_MOTION_DOT": -0.02097333, "MEAN_MOTION_DDOT": 0}, "tle": {"line1": "1 66597U 25270K   25347.58336806 -.02097333  00000+0 -45336-1 0  9999", "line2": "2 66597  42.9997 187.7718 0002001 266.9964 167.7892 15.47225635  4643"}}, "geometry": {"type": "Point", "coordinates": [136.5524605295444, -34.0464269735393]}}]}